{
    "links": {
        "self": "http://www.neowsapp.com/rest/v1/neo/3825031?api_key=iIulBulltgU6a56xZRHN4H3l9WmuAYTsLGpBGhQ2"
    },
    "id": "3825031",
    "neo_reference_id": "3825031",
    "name": "(2018 KS2)",
    "designation": "2018 KS2",
    "nasa_jpl_url": "http://ssd.jpl.nasa.gov/sbdb.cgi?sstr=3825031",
    "absolute_magnitude_h": 22.6,
    "estimated_diameter": {
        "kilometers": {
            "estimated_diameter_min": 0.0802703167,
            "estimated_diameter_max": 0.1794898848
        },
        "meters": {
            "estimated_diameter_min": 80.2703167283,
            "estimated_diameter_max": 179.4898847799
        },
        "miles": {
            "estimated_diameter_min": 0.049877647,
            "estimated_diameter_max": 0.1115298092
        },
        "feet": {
            "estimated_diameter_min": 263.3540659348,
            "estimated_diameter_max": 588.8775935812
        }
    },
    "is_potentially_hazardous_asteroid": false,
    "close_approach_data": [
        {
            "close_approach_date": "2018-06-05",
            "close_approach_date_full": "2018-Jun-05 20:27",
            "epoch_date_close_approach": 1528230420000,
            "relative_velocity": {
                "kilometers_per_second": "17.9835439798",
                "kilometers_per_hour": "64740.758327262",
                "miles_per_hour": "40227.3895284034"
            },
            "miss_distance": {
                "astronomical": "0.1306338887",
                "lunar": "50.8165827043",
                "kilometers": "19542551.499337069",
                "miles": "12143178.4150227922"
            },
            "orbiting_body": "Earth"
        }
    ],
    "orbital_data": {
        "orbit_id": "4",
        "orbit_determination_date": "2018-06-04 07:23:24",
        "first_observation_date": "2018-05-22",
        "last_observation_date": "2018-06-04",
        "data_arc_in_days": 13,
        "observations_used": 38,
        "orbit_uncertainty": "8",
        "minimum_orbit_intersection": ".0629866",
        "jupiter_tisserand_invariant": "3.043",
        "epoch_osculation": "2458262.5",
        "eccentricity": ".7264188180790476",
        "semi_major_axis": "2.474290336502706",
        "inclination": "7.295882172884734",
        "ascending_node_longitude": "193.1679305442607",
        "orbital_period": "1421.590181708532",
        "perihelion_distance": ".6769192746760012",
        "perihelion_argument": "135.1260424641591",
        "aphelion_distance": "4.27166139832941",
        "perihelion_time": "2458319.806902087947",
        "mean_anomaly": "345.4877411105455",
        "mean_motion": ".2532375396454521",
        "equinox": "J2000",
        "orbit_class": {
            "orbit_class_type": "APO",
            "orbit_class_description": "Near-Earth asteroid orbits which cross the Earth’s orbit similar to that of 1862 Apollo",
            "orbit_class_range": "a (semi-major axis) > 1.0 AU; q (perihelion) < 1.017 AU"
        }
    },
    "is_sentry_object": false
}